[{"OBJECT_NAME":"STARLINK-34620","OBJECT_ID":"2025-150P","EPOCH":"2026-03-09T13:29:21.659136","MEAN_MOTION":14.98350238,"ECCENTRICITY":0.0003773,"INCLINATION":70.0012,"RA_OF_ASC_NODE":134.9355,"ARG_OF_PERICENTER":270.7588,"MEAN_ANOMALY":89.3139,"EPHEMERIS_TYPE":0,"CLASSIFICATION_TYPE":"U","NORAD_CAT_ID":64803,"ELEMENT_SET_NO":999,"REV_AT_EPOCH":3649,"BSTAR":0.00055824,"MEAN_MOTION_DOT":6.578e-5,"MEAN_MOTION_DDOT":0},{"OBJECT_NAME":"COSMOS 2242","OBJECT_ID":"1993-024A","EPOCH":"2026-03-09T23:17:07.942848","MEAN_MOTION":14.96550444,"ECCENTRICITY":0.00151707,"INCLINATION":82.5157,"RA_OF_ASC_NODE":266.4481,"ARG_OF_PERICENTER":307.8411,"MEAN_ANOMALY":52.1437,"EPHEMERIS_TYPE":0,"CLASSIFICATION_TYPE":"U","NORAD_CAT_ID":22626,"ELEMENT_SET_NO":999,"REV_AT_EPOCH":78043,"BSTAR":0.00021609887,"MEAN_MOTION_DOT":2.488e-5,"MEAN_MOTION_DDOT":0}]
